{
    "response": {
        "header": {
            "resultCode": "0000",
            "resultMsg": "OK"
        },
        "body": {
            "items": {
                "item": {
                    "icaoCode": "RKSI",
                    "airportName": "\uc778\ucc9c\uacf5\ud56d",
                    "metarMsg": "METAR RKSI 130730Z 22011KT CAVOK 18/05 Q1015 NOSIG="
                }
            }
        }
    }
}