<response>
	<header>
		<resultCode>0000</resultCode>
		<resultMsg>OK</resultMsg>
	</header>
	<body>
		<items>
			<item>
				<icaoCode>RKSI</icaoCode>
				<airportName>&#51064;&#52380;&#44277;&#54637;</airportName>
				<metarMsg>METAR RKSI 130400Z 25016KT CAVOK 19/06 Q1016 NOSIG=</metarMsg>
			</item>
		</items>
	</body>
</response>